[{"OBJECT_NAME":"STARLINK-33762","OBJECT_ID":"2025-069K","EPOCH":"2026-03-09T10:15:46.511424","MEAN_MOTION":15.30174607,"ECCENTRICITY":0.00012412,"INCLINATION":53.1573,"RA_OF_ASC_NODE":143.7692,"ARG_OF_PERICENTER":65.4547,"MEAN_ANOMALY":294.6583,"EPHEMERIS_TYPE":0,"CLASSIFICATION_TYPE":"U","NORAD_CAT_ID":63442,"ELEMENT_SET_NO":999,"REV_AT_EPOCH":5336,"BSTAR":0.00039407698,"MEAN_MOTION_DOT":0.00011321,"MEAN_MOTION_DDOT":0},{"OBJECT_NAME":"NOAA 17 DEB","OBJECT_ID":"2002-032DK","EPOCH":"2026-03-06T06:53:22.349472","MEAN_MOTION":15.29547844,"ECCENTRICITY":0.00135803,"INCLINATION":98.6735,"RA_OF_ASC_NODE":77.6727,"ARG_OF_PERICENTER":131.2945,"MEAN_ANOMALY":228.9463,"EPHEMERIS_TYPE":0,"CLASSIFICATION_TYPE":"U","NORAD_CAT_ID":49481,"ELEMENT_SET_NO":999,"REV_AT_EPOCH":24998,"BSTAR":0.011623019,"MEAN_MOTION_DOT":0.00349096,"MEAN_MOTION_DDOT":0}]
